[{"OBJECT_NAME":"STARLINK-34746","OBJECT_ID":"2025-152F","EPOCH":"2026-03-09T14:13:47.414496","MEAN_MOTION":15.0564453,"ECCENTRICITY":0.0001778,"INCLINATION":97.6018,"RA_OF_ASC_NODE":285.425,"ARG_OF_PERICENTER":84.6912,"MEAN_ANOMALY":275.4518,"EPHEMERIS_TYPE":0,"CLASSIFICATION_TYPE":"U","NORAD_CAT_ID":64847,"ELEMENT_SET_NO":999,"REV_AT_EPOCH":3540,"BSTAR":0.00039503,"MEAN_MOTION_DOT":5.643e-5,"MEAN_MOTION_DDOT":0},{"OBJECT_NAME":"NOAA 17 DEB","OBJECT_ID":"2002-032W","EPOCH":"2026-03-09T23:34:50.358720","MEAN_MOTION":15.06684432,"ECCENTRICITY":0.0012716,"INCLINATION":98.7039,"RA_OF_ASC_NODE":76.0065,"ARG_OF_PERICENTER":104.6864,"MEAN_ANOMALY":255.577,"EPHEMERIS_TYPE":0,"CLASSIFICATION_TYPE":"U","NORAD_CAT_ID":48181,"ELEMENT_SET_NO":999,"REV_AT_EPOCH":26088,"BSTAR":0.0078736038,"MEAN_MOTION_DOT":0.00118919,"MEAN_MOTION_DDOT":0}]
